SL-3 R/B                
1 19046U 88032B   18076.94727475  .00000200  00000-0  19369-4 0  9992
2 19046  97.4884 120.3746 0037570 121.3070 239.1842 15.02372069613454
SL-16 R/B               
1 19120U 88039B   18077.48844754 -.00000052  00000-0 -17841-5 0  9993
2 19120  71.0132 105.3346 0020169 131.8520 228.4331 14.19182892545304
COSMOS 1953             
1 19210U 88050A   18077.08127292  .00001032  00000-0  69605-4 0  9994
2 19210  82.5161 127.7933 0014625  49.8972 310.3534 15.05516101619041
SL-8 R/B                
1 19257U 88053B   18076.94002669 -.00000073  00000-0 -15650-4 0  9999
2 19257  74.0463  73.2600 0021790 256.7808 127.2253 14.37393347557826
COSMOS 1975             
1 19573U 88093A   18077.52440751  .00000181  00000-0  10834-4 0  9994
2 19573  82.5172  80.0132 0016209  85.1019 275.2058 15.04413207601056
SL-14 R/B               
1 19574U 88093B   18076.97365270  .00000067  00000-0  53331-5 0  9998
2 19574  82.5297 249.0779 0020242 295.7701 177.6283 14.83256713568946
SL-16 R/B               
1 19650U 88102B   18076.79463279 -.00000256  00000-0 -10587-3 0  9998
2 19650  70.9999 159.7732 0012457 133.1707 227.0459 14.15765543514449
INTERCOSMOS 24          
1 20261U 89080A   18076.90089432  .00000371  00000-0  10563-3 0  9992
2 20261  82.6006 192.6380 1204383 185.4671 173.2210 12.55972105300733
SL-14 R/B               
1 20262U 89080C   18076.92718443  .00000011  00000-0 -75988-6 0  9993
2 20262  82.5907 240.7597 1237076 352.5580   5.8522 12.48887033296310
DELTA 1 R/B             
1 20323U 89089B   18076.93139032  .00000042  00000-0  20411-4 0  9994
2 20323  97.1221 344.8735 0070499 300.4876  58.9371 14.48246878494344
DELTA 2 R/B(1)          
1 20453U 90008B   18077.09223043  .00001991  00000-0  11401-3 0  9997
2 20453  35.6269  59.9932 0287137 287.8023  69.1561 14.83947858488906
COSMOS 2058             
1 20465U 90010A   18076.89338090  .00000368  00000-0  29019-4 0  9991
2 20465  82.4921 344.6648 0017138  92.4568 267.8617 14.97687330505199
SL-14 R/B               
1 20466U 90010B   18076.68086137  .00000103  00000-0  10062-4 0  9996
2 20466  82.5013 116.7148 0021155 156.3211 203.8981 14.81316678517986
SL-14 R/B               
1 20511U 90018B   18077.13654847  .00000056  00000-0  44271-5 0  9992
2 20511  82.5218  58.9898 0016082 297.2919 126.9268 14.79974170512584
HST                     
1 20580U 90037B   18076.91265227  .00000598  00000-0  25758-4 0  9993
2 20580  28.4706 358.4668 0002586 234.4650 205.3797 15.08998113331587
SL-16 R/B               
1 20625U 90046B   18077.00235725  .00000217  00000-0  13776-3 0  9998
2 20625  70.9977 294.4528 0012639  46.3900 313.8268 14.14624335436561
COSMOS 2084             
1 20663U 90055A   18077.40472125  .00000105  00000-0  26915-4 0  9997
2 20663  62.7934  32.7410 0130235 116.9483 244.4983 14.91787969500711
SL-6 R/B(2)             
1 20666U 90055D   18076.93666505  .00000097  00000-0  26776-4 0  9999
2 20666  62.7851 312.4516 0107697 137.0369 223.9200 14.92095965502557
SL-8 R/B                
1 20775U 90078B   18076.79109089  .00003559  00000-0  17755-3 0  9990
2 20775  82.9324 183.6973 0583242 218.4895 137.3326 14.31778167387906
SL-8 R/B                
1 21088U 91006B   18077.19324721  .00000038  00000-0  22783-4 0  9994
2 21088  82.9457 176.5437 0021136 272.8776 105.3005 13.77075052363318
OKEAN-3                 
1 21397U 91039A   18076.91741097  .00000239  00000-0  20613-4 0  9994
2 21397  82.5203 238.3572 0018891  45.4445 314.8313 14.92636672429551
COSMOS 2151             
1 21422U 91042A   18076.84971388  .00000232  00000-0  20280-4 0  9990
2 21422  82.5033 346.0114 0015774  99.5755 260.7247 14.91932191449305
SL-14 R/B               
1 21423U 91042B   18076.93189557  .00000098  00000-0  99281-5 0  9998
2 21423  82.4920  65.6006 0019147  75.1900 285.1432 14.79725936422024
ERS-1                   
1 21574U 91050A   18077.00118124  .00000056  00000-0  33172-4 0  9995
2 21574  98.4949  25.3002 0032202 216.1875 143.7133 14.37634199396923
ARIANE 40 R/B           
1 21610U 91050F   18077.34416976  .00000018  00000-0  19441-4 0  9990
2 21610  98.5662 140.0229 0003105 182.3980 235.7365 14.40830107399590
INTERCOSMOS 25          
1 21819U 91086A   18076.93831286  .00000935  00000-0  18824-3 0  9990
2 21819  82.5780 258.6585 1518578 224.3453 122.5741 12.04801965145222
SL-14 R/B               
1 21820U 91086B   18076.75035185  .00000256  00000-0  44041-4 0  9993
2 21820  82.5625 317.1124 1576853  63.4831 311.9147 11.93369672139413
SL-8 R/B                
1 21876U 92008B   18077.54648354 -.00000007  00000-0 -22921-4 0  9994
2 21876  82.9229 273.2901 0034581 350.4809  60.7409 13.75619583309109
SL-8 R/B                
1 21938U 92020B   18076.84902634  .00000033  00000-0  17969-4 0  9996
2 21938  82.9323 157.3051 0030188 146.5885 351.4369 13.75268275300607
SL-16 R/B               
1 22220U 92076B   18076.92273354 -.00000084  00000-0 -18243-4 0  9995
2 22220  70.9999 203.0406 0014385 223.0096 246.8373 14.16426413309200
SL-16 R/B               
1 22285U 92093B   18076.95345650  .00000274  00000-0  16622-3 0  9994
2 22285  71.0244 357.9843 0002268  54.6647 305.4687 14.15020815300988
COSMOS 2228             
1 22286U 92094A   18076.77443624  .00000263  00000-0  25926-4 0  9992
2 22286  82.5184 116.0926 0019717 295.1580  64.7592 14.87914432363176
SL-16 R/B               
1 22566U 93016B   18076.79588293 -.00000301  00000-0 -13081-3 0  9995
2 22566  71.0058 212.5952 0008036  74.3393 285.8616 14.14954974289975
COSMOS 2242             
1 22626U 93024A   18076.74221870  .00000235  00000-0  22998-4 0  9993
2 22626  82.5226 143.9168 0017462 294.6177  65.3221 14.87778440346825
SL-16 R/B               
1 22803U 93059B   18076.95574145 -.00000154  00000-0 -52948-4 0  9997
2 22803  70.9920  32.5380 0018639 322.3753  37.6065 14.16789507266804
ARIANE 40 R/B           
1 22830U 93061H   18077.49148034 -.00000048  00000-0 -54800-6 0  9997
2 22830  98.8670 103.9202 0010558 201.6033 158.4705 14.31413695277481
COSMOS 2278             
1 23087U 94023A   18077.16577595  .00000109  00000-0  82375-4 0  9995
2 23087  71.0521 146.3487 0008692 169.8804 190.2495 14.13756392233214
SL-16 R/B               
1 23088U 94023B   18077.41358405 -.00000050  00000-0 -13830-5 0  9999
2 23088  71.0001  66.4912 0002526 356.5847   3.5258 14.14669391234324
SL-16 R/B               
1 23343U 94074B   18076.76224970  .00000012  00000-0  92867-5 0  9998
2 23343  98.1174 121.0105 0005566 276.6449 218.7684 14.76725794257201
SL-16 R/B               
1 23405U 94077B   18076.95998804  .00000259  00000-0  15762-3 0  9995
2 23405  70.9858 359.7901 0004833 266.5761  93.4809 14.15198245203994
ERS-2                   
1 23560U 95021A   18077.20897375  .00001427  00000-0  67231-4 0  9994
2 23560  98.5475 111.5859 0004902  94.6138 265.5655 15.21560558217048
ARIANE 40+ R/B          
1 23561U 95021B   18076.95422397  .00000028  00000-0  24697-4 0  9999
2 23561  98.7961  89.5133 0007300 161.2248 223.8622 14.37862269200377
SL-16 R/B               
1 23705U 95058B   18077.22253564  .00000220  00000-0  13790-3 0  9993
2 23705  71.0229 174.0888 0014531 244.5265 115.4355 14.15114580155957
SL-16 R/B               
1 24298U 96051B   18076.93431283 -.00000200  00000-0 -81704-4 0  9999
2 24298  70.8407 205.1477 0014678 143.5406 216.6717 14.12457362110218
ORBVIEW 2 (SEASTAR)     
1 24883U 97037A   18076.88633380  .00000036  00000-0  28925-4 0  9991
2 24883  98.5526 187.1566 0002779  42.1310 318.0087 14.33441252 91110
SL-16 R/B               
1 25400U 98043G   18076.83325382 -.00000014  00000-0  11938-4 0  9993
2 25400  98.5245  21.8041 0009204 210.1611 149.9040 14.25430822 24058
SL-16 R/B               
1 25407U 98045B   18076.72402191 -.00000271  00000-0 -11350-3 0  9997
2 25407  71.0119 186.5977 0006945 167.4610 192.6687 14.15773275 14906
ISS (ZARYA)             
1 25544U 98067A   18077.55644794  .00001918  00000-0  36217-4 0  9999
2 25544  51.6417 110.5274 0002027 208.9103 267.2569 15.54108842104426
SL-8 R/B                
1 25723U 99022C   18077.18198165  .00009548  00000-0  12876-3 0  9996
2 25723  48.4144 141.7935 0010049 279.1652  80.8158 15.58376272 49179
CZ-4B R/B               
1 25732U 99025C   18077.53089747 -.00000030  00000-0  76710-5 0  9990
2 25732  98.9965  87.6647 0037905  32.1259  78.4181 14.17646133975502
OKEAN-O                 
1 25860U 99039A   18077.53533819  .00000041  00000-0  13582-4 0  9999
2 25860  98.2124  71.5675 0001247  64.8069 295.3269 14.76536080  4311
SL-16 R/B               
1 25861U 99039B   18077.55484252  .00000043  00000-0  13392-4 0  9999
2 25861  98.1433  56.2986 0014364 279.8511 192.7737 14.78466790  6317
TERRA                   
1 25994U 99068A   18077.26506459 -.00003692  00000-0 -81027-3 0  9994
2 25994  98.2121 153.4257 0001067  69.0093 291.1153 14.57085188970580
ENVISAT                 
1 27386U 02009A   18077.48535623 -.00000007  00000-0  11224-4 0  9998
2 27386  98.1964 115.7677 0001062  73.1002 287.0310 14.37917532840499
IDEFIX & ARIANE 42P R/B 
1 27422U 02021B   18076.95577431 -.00000042  00000-0 -72146-6 0  9999
2 27422  98.2501  67.3272 0013008 140.7142 219.4987 14.29259847827673
AQUA                    
1 27424U 02022A   18077.24239944  .00000173  00000-0  48412-4 0  9999
2 27424  98.2105  19.8252 0002044  19.0005 118.4630 14.57111210844189
CZ-4B R/B               
1 27432U 02024C   18076.93180100 -.00000027  00000-0  10010-4 0  9996
2 27432  99.0254  57.5712 0050166 339.4519  73.1131 14.14060319817403
MIDORI II (ADEOS-II)    
1 27597U 02056A   18077.50043855  .00000014  00000-0  22979-4 0  9994
2 27597  98.4104  40.9794 0000439 138.1961 221.9254 14.27338985794551
H-2A R/B                
1 27601U 02056E   18077.56493821  .00000073  00000-0  41584-4 0  9996
2 27601  98.3391 140.3703 0071878 200.5955 295.6697 14.31829584797075
